{"type": "FeatureCollection", "features": [ {"type": "Feature", "properties": {"norad_id": 31287, "name": "FENGYUN 1C DEB", "group": "fengyun-1c-debris", "lat": -78.62332840821851, "lon": 98.94766831193762, "alt_km": 821.7817957415236, "timestamp": "2025-12-13T10:41:26.047837+00:00", "meta": {"OBJECT_NAME": "FENGYUN 1C DEB", "OBJECT_ID": "1999-025BNV", "EPOCH": "2025-12-10T09:05:30.793632", "MEAN_MOTION": 14.27994114, "ECCENTRICITY": 0.00277142, "INCLINATION": 99.4101, "RA_OF_ASC_NODE": 40.14, "ARG_OF_PERICENTER": 69.5923, "MEAN_ANOMALY": 290.8228, "EPHEMERIS_TYPE": 0, "CLASSIFICATION_TYPE": "U", "NORAD_CAT_ID": 31287, "ELEMENT_SET_NO": 999, "REV_AT_EPOCH": 96652, "BSTAR": 0.0021830392, "MEAN_MOTION_DOT": 5.391e-05, "MEAN_MOTION_DDOT": 0}, "tle": {"line1": "1 31287U 99025BNV 25344.37882863  .00005391  00000+0  21830-2 0  9992", "line2": "2 31287  99.4101  40.1400 0027714  69.5923 290.8228 14.27994114966522"}}, "geometry": {"type": "Point", "coordinates": [98.94766831193762, -78.62332840821851]}}, {"type": "Feature", "properties": {"norad_id": 31288, "name": "FENGYUN 1C DEB", "group": "fengyun-1c-debris", "lat": -46.50217470220128, "lon": -43.76351004372292, "alt_km": 580.4822525725085, "timestamp": "2025-12-13T10:41:26.047848+00:00", "meta": {"OBJECT_NAME": "FENGYUN 1C DEB", "OBJECT_ID": "1999-025BNW", "EPOCH": "2025-12-12T09:44:03.823584", "MEAN_MOTION": 14.9560691, "ECCENTRICITY": 0.00228105, "INCLINATION": 98.7459, "RA_OF_ASC_NODE": 144.4136, "ARG_OF_PERICENTER": 297.572, "MEAN_ANOMALY": 94.1355, "EPHEMERIS_TYPE": 0, "CLASSIFICATION_TYPE": "U", "NORAD_CAT_ID": 31288, "ELEMENT_SET_NO": 999, "REV_AT_EPOCH": 97552, "BSTAR": 0.0079382823, "MEAN_MOTION_DOT": 0.00089623, "MEAN_MOTION_DDOT": 0}, "tle": {"line1": "1 31288U 99025BNW 25346.40559981  .00089623  00000+0  79383-2 0  9997", "line2": "2 31288  98.7459 144.4136 0022810 297.5720  94.1355 14.95606910975520"}}, "geometry": {"type": "Point", "coordinates": [-43.76351004372292, -46.50217470220128]}}, {"type": "Feature", "properties": {"norad_id": 31293, "name": "FENGYUN 1C DEB", "group": "fengyun-1c-debris", "lat": -14.49917148456856, "lon": -2.6198518440900638, "alt_km": 812.1853504215378, "timestamp": "2025-12-13T10:41:26.047859+00:00", "meta": {"OBJECT_NAME": "FENGYUN 1C DEB", "OBJECT_ID": "1999-025BPB", "EPOCH": "2025-12-11T06:43:51.182400", "MEAN_MOTION": 14.30811364, "ECCENTRICITY": 0.01253999, "INCLINATION": 98.4229, "RA_OF_ASC_NODE": 353.086, "ARG_OF_PERICENTER": 249.2429, "MEAN_ANOMALY": 109.528, "EPHEMERIS_TYPE": 0, "CLASSIFICATION_TYPE": "U", "NORAD_CAT_ID": 31293, "ELEMENT_SET_NO": 999, "REV_AT_EPOCH": 65223, "BSTAR": 0.00013028256, "MEAN_MOTION_DOT": 3.27e-06, "MEAN_MOTION_DDOT": 0}, "tle": {"line1": "1 31293U 99025BPB 25345.28045350  .00000327  00000+0  13028-3 0  9997", "line2": "2 31293  98.4229 353.0860 0125399 249.2429 109.5280 14.30811364652234"}}, "geometry": {"type": "Point", "coordinates": [-2.6198518440900638, -14.49917148456856]}}, {"type": "Feature", "properties": {"norad_id": 31294, "name": "FENGYUN 1C DEB", "group": "fengyun-1c-debris", "lat": 8.480666965978537, "lon": -18.25688691817215, "alt_km": 780.2318919793443, "timestamp": "2025-12-13T10:41:26.047869+00:00", "meta": {"OBJECT_NAME": "FENGYUN 1C DEB", "OBJECT_ID": "1999-025BPC", "EPOCH": "2025-12-12T19:22:50.881440", "MEAN_MOTION": 14.15312549, "ECCENTRICITY": 0.00996652, "INCLINATION": 98.5432, "RA_OF_ASC_NODE": 342.4162, "ARG_OF_PERICENTER": 340.9361, "MEAN_ANOMALY": 18.8094, "EPHEMERIS_TYPE": 0, "CLASSIFICATION_TYPE": "U", "NORAD_CAT_ID": 31294, "ELEMENT_SET_NO": 999, "REV_AT_EPOCH": 96854, "BSTAR": 0.0007782727, "MEAN_MOTION_DOT": 1.548e-05, "MEAN_MOTION_DDOT": 0}, "tle": {"line1": "1 31294U 99025BPC 25346.80753335  .00001548  00000+0  77827-3 0  9999", "line2": "2 31294  98.5432 342.4162 0099665 340.9361  18.8094 14.15312549968542"}}, "geometry": {"type": "Point", "coordinates": [-18.25688691817215, 8.480666965978537]}}, {"type": "Feature", "properties": {"norad_id": 31295, "name": "FENGYUN 1C DEB", "group": "fengyun-1c-debris", "lat": -81.47602084089122, "lon": -85.09604665598867, "alt_km": 859.1637128921011, "timestamp": "2025-12-13T10:41:26.047879+00:00", "meta": {"OBJECT_NAME": "FENGYUN 1C DEB", "OBJECT_ID": "1999-025BPD", "EPOCH": "2025-12-12T23:05:35.655072", "MEAN_MOTION": 13.96833201, "ECCENTRICITY": 0.00767674, "INCLINATION": 98.3168, "RA_OF_ASC_NODE": 171.8764, "ARG_OF_PERICENTER": 250.6384, "MEAN_ANOMALY": 108.647, "EPHEMERIS_TYPE": 0, "CLASSIFICATION_TYPE": "U", "NORAD_CAT_ID": 31295, "ELEMENT_SET_NO": 999, "REV_AT_EPOCH": 95506, "BSTAR": 0.00020397275, "MEAN_MOTION_DOT": 2.52e-06, "MEAN_MOTION_DDOT": 0}, "tle": {"line1": "1 31295U 99025BPD 25346.96221823  .00000252  00000+0  20397-3 0  9990", "line2": "2 31295  98.3168 171.8764 0076767 250.6384 108.6470 13.96833201955069"}}, "geometry": {"type": "Point", "coordinates": [-85.09604665598867, -81.47602084089122]}}, {"type": "Feature", "properties": {"norad_id": 31296, "name": "FENGYUN 1C DEB", "group": "fengyun-1c-debris", "lat": -77.15998797761203, "lon": 37.95437788208309, "alt_km": 654.2223749480972, "timestamp": "2025-12-13T10:41:26.047889+00:00", "meta": {"OBJECT_NAME": "FENGYUN 1C DEB", "OBJECT_ID": "1999-025BPE", "EPOCH": "2025-12-12T17:11:21.238656", "MEAN_MOTION": 14.71461015, "ECCENTRICITY": 0.00196118, "INCLINATION": 99.0659, "RA_OF_ASC_NODE": 261.6123, "ARG_OF_PERICENTER": 215.3966, "MEAN_ANOMALY": 144.5937, "EPHEMERIS_TYPE": 0, "CLASSIFICATION_TYPE": "U", "NORAD_CAT_ID": 31296, "ELEMENT_SET_NO": 999, "REV_AT_EPOCH": 97349, "BSTAR": 0.0063568237, "MEAN_MOTION_DOT": 0.00039695, "MEAN_MOTION_DDOT": 0}, "tle": {"line1": "1 31296U 99025BPE 25346.71621804  .00039695  00000+0  63568-2 0  9996", "line2": "2 31296  99.0659 261.6123 0019611 215.3966 144.5937 14.71461015973497"}}, "geometry": {"type": "Point", "coordinates": [37.95437788208309, -77.15998797761203]}}, {"type": "Feature", "properties": {"norad_id": 31297, "name": "FENGYUN 1C DEB", "group": "fengyun-1c-debris", "lat": -20.81773411103435, "lon": 127.8161022034961, "alt_km": 784.9013147410415, "timestamp": "2025-12-13T10:41:26.047900+00:00", "meta": {"OBJECT_NAME": "FENGYUN 1C DEB", "OBJECT_ID": "1999-025BPF", "EPOCH": "2025-12-12T20:38:42.469728", "MEAN_MOTION": 14.57080378, "ECCENTRICITY": 0.01396723, "INCLINATION": 98.934, "RA_OF_ASC_NODE": 123.7597, "ARG_OF_PERICENTER": 122.4907, "MEAN_ANOMALY": 29.5137, "EPHEMERIS_TYPE": 0, "CLASSIFICATION_TYPE": "U", "NORAD_CAT_ID": 31297, "ELEMENT_SET_NO": 999, "REV_AT_EPOCH": 99317, "BSTAR": 0.00069051516, "MEAN_MOTION_DOT": 3.496e-05, "MEAN_MOTION_DDOT": 0}, "tle": {"line1": "1 31297U 99025BPF 25346.86021377  .00003496  00000+0  69052-3 0  9997", "line2": "2 31297  98.9340 123.7597 0139672 122.4907  29.5137 14.57080378993173"}}, "geometry": {"type": "Point", "coordinates": [127.8161022034961, -20.81773411103435]}}, {"type": "Feature", "properties": {"norad_id": 31300, "name": "FENGYUN 1C DEB", "group": "fengyun-1c-debris", "lat": 3.6452017339542184, "lon": -112.5424347580428, "alt_km": 864.4636497914398, "timestamp": "2025-12-13T10:41:26.047910+00:00", "meta": {"OBJECT_NAME": "FENGYUN 1C DEB", "OBJECT_ID": "1999-025BPJ", "EPOCH": "2025-12-12T17:36:24.050880", "MEAN_MOTION": 14.15128199, "ECCENTRICITY": 0.00603591, "INCLINATION": 99.5422, "RA_OF_ASC_NODE": 66.0828, "ARG_OF_PERICENTER": 60.2329, "MEAN_ANOMALY": 90.9338, "EPHEMERIS_TYPE": 0, "CLASSIFICATION_TYPE": "U", "NORAD_CAT_ID": 31300, "ELEMENT_SET_NO": 999, "REV_AT_EPOCH": 96174, "BSTAR": 0.0019062496, "MEAN_MOTION_DOT": 3.716e-05, "MEAN_MOTION_DDOT": 0}, "tle": {"line1": "1 31300U 99025BPJ 25346.73361170  .00003716  00000+0  19062-2 0  9996", "line2": "2 31300  99.5422  66.0828 0060359  60.2329  90.9338 14.15128199961745"}}, "geometry": {"type": "Point", "coordinates": [-112.5424347580428, 3.6452017339542184]}}, {"type": "Feature", "properties": {"norad_id": 31302, "name": "FENGYUN 1C DEB", "group": "fengyun-1c-debris", "lat": 45.57781916914568, "lon": 19.792659561284847, "alt_km": 776.3190401161819, "timestamp": "2025-12-13T10:41:26.047920+00:00", "meta": {"OBJECT_NAME": "FENGYUN 1C DEB", "OBJECT_ID": "1999-025BPL", "EPOCH": "2025-12-05T14:46:32.923776", "MEAN_MOTION": 14.27462928, "ECCENTRICITY": 0.00274625, "INCLINATION": 99.4134, "RA_OF_ASC_NODE": 21.1132, "ARG_OF_PERICENTER": 75.788, "MEAN_ANOMALY": 75.4083, "EPHEMERIS_TYPE": 0, "CLASSIFICATION_TYPE": "U", "NORAD_CAT_ID": 31302, "ELEMENT_SET_NO": 999, "REV_AT_EPOCH": 96256, "BSTAR": 0.0026425456, "MEAN_MOTION_DOT": 6.469e-05, "MEAN_MOTION_DDOT": 0}, "tle": {"line1": "1 31302U 99025BPL 25339.61565884  .00006469  00000+0  26425-2 0  9994", "line2": "2 31302  99.4134  21.1132 0027462  75.7880  75.4083 14.27462928962567"}}, "geometry": {"type": "Point", "coordinates": [19.792659561284847, 45.57781916914568]}}, {"type": "Feature", "properties": {"norad_id": 31303, "name": "FENGYUN 1C DEB", "group": "fengyun-1c-debris", "lat": 80.6770186895304, "lon": -107.43227553441821, "alt_km": 843.8230955738163, "timestamp": "2025-12-13T10:41:26.047931+00:00", "meta": {"OBJECT_NAME": "FENGYUN 1C DEB", "OBJECT_ID": "1999-025BPM", "EPOCH": "2025-12-13T00:02:19.104000", "MEAN_MOTION": 14.1102512, "ECCENTRICITY": 0.00116096, "INCLINATION": 98.7048, "RA_OF_ASC_NODE": 3.1962, "ARG_OF_PERICENTER": 151.4225, "MEAN_ANOMALY": 208.7585, "EPHEMERIS_TYPE": 0, "CLASSIFICATION_TYPE": "U", "NORAD_CAT_ID": 31303, "ELEMENT_SET_NO": 999, "REV_AT_EPOCH": 96322, "BSTAR": 0.00015438338, "MEAN_MOTION_DOT": 2.35e-06, "MEAN_MOTION_DDOT": 0}, "tle": {"line1": "1 31303U 99025BPM 25347.00161000  .00000235  00000+0  15438-3 0  9997", "line2": "2 31303  98.7048   3.1962 0011609 151.4225 208.7585 14.11025120963220"}}, "geometry": {"type": "Point", "coordinates": [-107.43227553441821, 80.6770186895304]}}]}